<?xml version="1.0" encoding="UTF-8" standalone="no"?><gpx xmlns="http://www.topografix.com/GPX/1/1" xmlns:xsi="http://www.w3.org/2001/XMLSchema-instance" creator="Sports Tracker" version="1.1" xsi:schemaLocation="http://www.topografix.com/GPX/1/1 http://www.topografix.com/GPX/1/1/gpx.xsd"><metadata><name>J1 MIUT 2026</name><author><name>nicolaslenivet</name></author></metadata><wpt lat="32.867657" lon="-17.16867"><name>Begin</name><desc>Auto-generated</desc><type>Begin</type></wpt><wpt lat="32.867516" lon="-17.168196"><name>Waypoint 1</name><desc>Auto-generated</desc><type>Waypoint</type></wpt><wpt lat="32.81801" lon="-17.108885"><name>Waypoint 2</name><desc>Auto-generated</desc><type>Waypoint</type></wpt><wpt lat="32.81983" lon="-17.10897"><type>Slight_left_turn</type></wpt><wpt lat="32.82317" lon="-17.106903"><type>Sharp_left_turn</type></wpt><wpt lat="32.82389" lon="-17.106379"><type>Sharp_right_turn</type></wpt><wpt lat="32.824024" lon="-17.10572"><type>Left_turn</type></wpt><wpt lat="32.824505" lon="-17.105991"><type>Slight_left_turn</type></wpt><wpt lat="32.824524" lon="-17.106056"><name>End</name><desc>Auto-generated</desc><type>End</type></wpt><rte><rtept lat="32.867657" lon="-17.16867"><ele>28.4</ele></rtept><rtept lat="32.867516" lon="-17.168196"><ele>28.552946</ele></rtept><rtept lat="32.867474" lon="-17.168049"><ele>28.6</ele></rtept><rtept lat="32.86757" lon="-17.16745"><ele>29.2</ele></rtept><rtept lat="32.867577" lon="-17.16731"><ele>29.2</ele></rtept><rtept lat="32.867523" lon="-17.167032"><ele>29.2</ele></rtept><rtept lat="32.867626" lon="-17.166494"><ele>27.4</ele></rtept><rtept lat="32.86761" lon="-17.16635"><ele>26.8</ele></rtept><rtept lat="32.86749" lon="-17.16616"><ele>26.0</ele></rtept><rtept lat="32.866962" lon="-17.165798"><ele>24.6</ele></rtept><rtept lat="32.866814" lon="-17.165733"><ele>24.2</ele></rtept><rtept lat="32.86666" lon="-17.16577"><ele>23.6</ele></rtept><rtept lat="32.86651" lon="-17.165977"><ele>23.4</ele></rtept><rtept lat="32.866096" lon="-17.166788"><ele>28.6</ele></rtept><rtept lat="32.86582" lon="-17.167227"><ele>33.4</ele></rtept><rtept lat="32.865227" lon="-17.168411"><ele>50.0</ele></rtept><rtept lat="32.865074" lon="-17.169182"><ele>57.8</ele></rtept><rtept lat="32.865005" lon="-17.170477"><ele>70.0</ele></rtept><rtept lat="32.865032" lon="-17.17066"><ele>71.8</ele></rtept><rtept lat="32.86524" lon="-17.17116"><ele>74.0</ele></rtept><rtept lat="32.865253" lon="-17.171255"><ele>74.4</ele></rtept><rtept lat="32.865227" lon="-17.17134"><ele>75.0</ele></rtept><rtept lat="32.86513" lon="-17.171436"><ele>77.0</ele></rtept><rtept lat="32.86469" lon="-17.171782"><ele>87.2</ele></rtept><rtept lat="32.864643" lon="-17.171705"><ele>89.2</ele></rtept><rtept lat="32.86464" lon="-17.171152"><ele>100.0</ele></rtept><rtept lat="32.86458" lon="-17.17106"><ele>102.8</ele></rtept><rtept lat="32.86423" lon="-17.170853"><ele>115.0</ele></rtept><rtept lat="32.864136" lon="-17.170673"><ele>119.8</ele></rtept><rtept lat="32.86407" lon="-17.170359"><ele>126.4</ele></rtept><rtept lat="32.86402" lon="-17.170296"><ele>128.2</ele></rtept><rtept lat="32.86394" lon="-17.170296"><ele>131.0</ele></rtept><rtept lat="32.863903" lon="-17.170633"><ele>136.4</ele></rtept><rtept lat="32.863697" lon="-17.171118"><ele>148.0</ele></rtept><rtept lat="32.86363" lon="-17.171146"><ele>150.8</ele></rtept><rtept lat="32.863495" lon="-17.171045"><ele>156.8</ele></rtept><rtept lat="32.863426" lon="-17.171041"><ele>159.6</ele></rtept><rtept lat="32.8632" lon="-17.171309"><ele>170.2</ele></rtept><rtept lat="32.86308" lon="-17.171263"><ele>174.2</ele></rtept><rtept lat="32.862995" lon="-17.171131"><ele>178.2</ele></rtept><rtept lat="32.862984" lon="-17.170904"><ele>183.6</ele></rtept><rtept lat="32.86305" lon="-17.170532"><ele>193.6</ele></rtept><rtept lat="32.86304" lon="-17.170399"><ele>196.6</ele></rtept><rtept lat="32.863003" lon="-17.170357"><ele>198.0</ele></rtept><rtept lat="32.86264" lon="-17.170498"><ele>211.0</ele></rtept><rtept lat="32.86254" lon="-17.170578"><ele>215.2</ele></rtept><rtept lat="32.862362" lon="-17.17084"><ele>222.8</ele></rtept><rtept lat="32.862278" lon="-17.170881"><ele>225.4</ele></rtept><rtept lat="32.862244" lon="-17.170853"><ele>226.8</ele></rtept><rtept lat="32.862267" lon="-17.170698"><ele>232.0</ele></rtept><rtept lat="32.862232" lon="-17.170092"><ele>245.4</ele></rtept><rtept lat="32.862274" lon="-17.169746"><ele>254.2</ele></rtept><rtept lat="32.86231" lon="-17.169556"><ele>258.4</ele></rtept><rtept lat="32.862423" lon="-17.16928"><ele>265.2</ele></rtept><rtept lat="32.86248" lon="-17.169003"><ele>273.2</ele></rtept><rtept lat="32.86241" lon="-17.16894"><ele>276.4</ele></rtept><rtept lat="32.86199" lon="-17.169107"><ele>289.0</ele></rtept><rtept lat="32.861973" lon="-17.169067"><ele>290.6</ele></rtept><rtept lat="32.86199" lon="-17.16901"><ele>292.6</ele></rtept><rtept lat="32.862206" lon="-17.168665"><ele>301.6</ele></rtept><rtept lat="32.86216" lon="-17.168602"><ele>303.8</ele></rtept><rtept lat="32.861965" lon="-17.168493"><ele>308.2</ele></rtept><rtept lat="32.861744" lon="-17.168463"><ele>312.0</ele></rtept><rtept lat="32.861507" lon="-17.16852"><ele>317.0</ele></rtept><rtept lat="32.861378" lon="-17.168608"><ele>320.0</ele></rtept><rtept lat="32.86101" lon="-17.169022"><ele>331.2</ele></rtept><rtept lat="32.860874" lon="-17.169127"><ele>335.4</ele></rtept><rtept lat="32.860203" lon="-17.16945"><ele>352.2</ele></rtept><rtept lat="32.85981" lon="-17.169554"><ele>358.4</ele></rtept><rtept lat="32.859516" lon="-17.16973"><ele>363.2</ele></rtept><rtept lat="32.859097" lon="-17.169577"><ele>366.8</ele></rtept><rtept lat="32.858932" lon="-17.169596"><ele>367.0</ele></rtept><rtept lat="32.858707" lon="-17.169678"><ele>367.2</ele></rtept><rtept lat="32.858624" lon="-17.169653"><ele>367.4</ele></rtept><rtept lat="32.858395" lon="-17.169283"><ele>368.8</ele></rtept><rtept lat="32.858402" lon="-17.169174"><ele>369.6</ele></rtept><rtept lat="32.858543" lon="-17.168858"><ele>372.8</ele></rtept><rtept lat="32.85853" lon="-17.168768"><ele>373.4</ele></rtept><rtept lat="32.858448" lon="-17.168728"><ele>374.4</ele></rtept><rtept lat="32.858208" lon="-17.168705"><ele>375.8</ele></rtept><rtept lat="32.857994" lon="-17.168728"><ele>376.2</ele></rtept><rtept lat="32.857883" lon="-17.168749"><ele>376.2</ele></rtept><rtept lat="32.85774" lon="-17.168827"><ele>376.0</ele></rtept><rtept lat="32.85758" lon="-17.16902"><ele>377.8</ele></rtept><rtept lat="32.857483" lon="-17.169365"><ele>377.6</ele></rtept><rtept lat="32.85741" lon="-17.169424"><ele>376.8</ele></rtept><rtept lat="32.857178" lon="-17.169336"><ele>376.8</ele></rtept><rtept lat="32.856956" lon="-17.169094"><ele>377.4</ele></rtept><rtept lat="32.85657" lon="-17.16885"><ele>377.8</ele></rtept><rtept lat="32.855553" lon="-17.168686"><ele>382.0</ele></rtept><rtept lat="32.85535" lon="-17.168623"><ele>383.8</ele></rtept><rtept lat="32.85532" lon="-17.168526"><ele>384.6</ele></rtept><rtept lat="32.855377" lon="-17.168367"><ele>385.4</ele></rtept><rtept lat="32.855915" lon="-17.167576"><ele>384.4</ele></rtept><rtept lat="32.856365" lon="-17.166668"><ele>384.2</ele></rtept><rtept lat="32.856422" lon="-17.16641"><ele>384.0</ele></rtept><rtept lat="32.856464" lon="-17.165901"><ele>384.2</ele></rtept><rtept lat="32.856422" lon="-17.165796"><ele>384.2</ele></rtept><rtept lat="32.856216" lon="-17.165808"><ele>384.0</ele></rtept><rtept lat="32.855858" lon="-17.165531"><ele>383.8</ele></rtept><rtept lat="32.855453" lon="-17.165337"><ele>380.6</ele></rtept><rtept lat="32.85536" lon="-17.164387"><ele>363.2</ele></rtept><rtept lat="32.85536" lon="-17.164051"><ele>359.2</ele></rtept><rtept lat="32.855236" lon="-17.163729"><ele>355.4</ele></rtept><rtept lat="32.85532" lon="-17.163305"><ele>350.4</ele></rtept><rtept lat="32.855293" lon="-17.162771"><ele>335.8</ele></rtept><rtept lat="32.855007" lon="-17.16216"><ele>317.2</ele></rtept><rtept lat="32.854774" lon="-17.161898"><ele>305.8</ele></rtept><rtept lat="32.8547" lon="-17.161873"><ele>300.8</ele></rtept><rtept lat="32.854736" lon="-17.161842"><ele>297.4</ele></rtept><rtept lat="32.854736" lon="-17.161777"><ele>296.4</ele></rtept><rtept lat="32.85455" lon="-17.161642"><ele>290.0</ele></rtept><rtept lat="32.85445" lon="-17.16151"><ele>283.6</ele></rtept><rtept lat="32.854156" lon="-17.160967"><ele>269.4</ele></rtept><rtept lat="32.854195" lon="-17.160812"><ele>264.2</ele></rtept><rtept lat="32.85433" lon="-17.16071"><ele>258.8</ele></rtept><rtept lat="32.854397" lon="-17.160606"><ele>255.2</ele></rtept><rtept lat="32.85444" lon="-17.160357"><ele>248.8</ele></rtept><rtept lat="32.854523" lon="-17.160168"><ele>244.4</ele></rtept><rtept lat="32.855064" lon="-17.159506"><ele>228.0</ele></rtept><rtept lat="32.85529" lon="-17.158524"><ele>208.4</ele></rtept><rtept lat="32.85555" lon="-17.158157"><ele>196.6</ele></rtept><rtept lat="32.85554" lon="-17.1581"><ele>194.8</ele></rtept><rtept lat="32.855328" lon="-17.157997"><ele>186.0</ele></rtept><rtept lat="32.855217" lon="-17.157875"><ele>180.2</ele></rtept><rtept lat="32.854923" lon="-17.157764"><ele>175.6</ele></rtept><rtept lat="32.85475" lon="-17.15759"><ele>174.6</ele></rtept><rtept lat="32.85463" lon="-17.157236"><ele>169.4</ele></rtept><rtept lat="32.854176" lon="-17.157104"><ele>154.8</ele></rtept><rtept lat="32.85417" lon="-17.15708"><ele>153.0</ele></rtept><rtept lat="32.85433" lon="-17.157038"><ele>149.2</ele></rtept><rtept lat="32.854504" lon="-17.15693"><ele>144.2</ele></rtept><rtept lat="32.8547" lon="-17.15689"><ele>137.0</ele></rtept><rtept lat="32.85453" lon="-17.156746"><ele>130.2</ele></rtept><rtept lat="32.854267" lon="-17.156734"><ele>121.8</ele></rtept><rtept lat="32.854244" lon="-17.156708"><ele>119.4</ele></rtept><rtept lat="32.854546" lon="-17.156504"><ele>110.2</ele></rtept><rtept lat="32.8545" lon="-17.156458"><ele>108.0</ele></rtept><rtept lat="32.85431" lon="-17.15649"><ele>101.8</ele></rtept><rtept lat="32.85438" lon="-17.156351"><ele>97.0</ele></rtept><rtept lat="32.854706" lon="-17.156223"><ele>87.2</ele></rtept><rtept lat="32.854412" lon="-17.156103"><ele>78.4</ele></rtept><rtept lat="32.854733" lon="-17.155973"><ele>70.2</ele></rtept><rtept lat="32.85475" lon="-17.155933"><ele>68.2</ele></rtept><rtept lat="32.854477" lon="-17.155872"><ele>62.0</ele></rtept><rtept lat="32.854248" lon="-17.155771"><ele>56.4</ele></rtept><rtept lat="32.854046" lon="-17.155766"><ele>50.8</ele></rtept><rtept lat="32.854256" lon="-17.155567"><ele>42.4</ele></rtept><rtept lat="32.85442" lon="-17.155237"><ele>39.4</ele></rtept><rtept lat="32.854572" lon="-17.15467"><ele>32.8</ele></rtept><rtept lat="32.85456" lon="-17.154524"><ele>31.2</ele></rtept><rtept lat="32.85452" lon="-17.154438"><ele>30.0</ele></rtept><rtept lat="32.854313" lon="-17.154217"><ele>27.0</ele></rtept><rtept lat="32.85407" lon="-17.154034"><ele>26.4</ele></rtept><rtept lat="32.853844" lon="-17.154081"><ele>26.4</ele></rtept><rtept lat="32.853657" lon="-17.154245"><ele>27.2</ele></rtept><rtept lat="32.85356" lon="-17.154472"><ele>28.4</ele></rtept><rtept lat="32.853195" lon="-17.155092"><ele>35.2</ele></rtept><rtept lat="32.85316" lon="-17.155077"><ele>36.0</ele></rtept><rtept lat="32.85314" lon="-17.155006"><ele>37.4</ele></rtept><rtept lat="32.853134" lon="-17.154583"><ele>49.0</ele></rtept><rtept lat="32.853184" lon="-17.154419"><ele>51.0</ele></rtept><rtept lat="32.85318" lon="-17.15439"><ele>51.6</ele></rtept><rtept lat="32.853153" lon="-17.154425"><ele>53.6</ele></rtept><rtept lat="32.853153" lon="-17.15417"><ele>63.0</ele></rtept><rtept lat="32.85311" lon="-17.154139"><ele>65.2</ele></rtept><rtept lat="32.852673" lon="-17.154692"><ele>81.2</ele></rtept><rtept lat="32.852516" lon="-17.155006"><ele>87.4</ele></rtept><rtept lat="32.85214" lon="-17.155516"><ele>99.0</ele></rtept><rtept lat="32.85191" lon="-17.155682"><ele>106.6</ele></rtept><rtept lat="32.851772" lon="-17.155638"><ele>112.4</ele></rtept><rtept lat="32.8516" lon="-17.155703"><ele>115.2</ele></rtept><rtept lat="32.85162" lon="-17.155651"><ele>117.0</ele></rtept><rtept lat="32.85153" lon="-17.155724"><ele>120.6</ele></rtept><rtept lat="32.85148" lon="-17.15585"><ele>124.0</ele></rtept><rtept lat="32.851517" lon="-17.156351"><ele>132.4</ele></rtept><rtept lat="32.851486" lon="-17.156431"><ele>134.0</ele></rtept><rtept lat="32.851013" lon="-17.156822"><ele>144.6</ele></rtept><rtept lat="32.85094" lon="-17.157036"><ele>148.6</ele></rtept><rtept lat="32.850826" lon="-17.157183"><ele>151.4</ele></rtept><rtept lat="32.85061" lon="-17.157337"><ele>154.2</ele></rtept><rtept lat="32.85015" lon="-17.157475"><ele>160.8</ele></rtept><rtept lat="32.849823" lon="-17.15786"><ele>169.8</ele></rtept><rtept lat="32.849613" lon="-17.157997"><ele>176.0</ele></rtept><rtept lat="32.849422" lon="-17.157972"><ele>180.8</ele></rtept><rtept lat="32.849377" lon="-17.157898"><ele>183.8</ele></rtept><rtept lat="32.849068" lon="-17.157728"><ele>193.4</ele></rtept><rtept lat="32.848625" lon="-17.157806"><ele>202.2</ele></rtept><rtept lat="32.848343" lon="-17.157774"><ele>209.6</ele></rtept><rtept lat="32.847984" lon="-17.157475"><ele>221.8</ele></rtept><rtept lat="32.847797" lon="-17.15744"><ele>226.8</ele></rtept><rtept lat="32.847706" lon="-17.157482"><ele>229.4</ele></rtept><rtept lat="32.847664" lon="-17.157547"><ele>231.0</ele></rtept><rtept lat="32.847652" lon="-17.157732"><ele>234.6</ele></rtept><rtept lat="32.847595" lon="-17.157963"><ele>239.4</ele></rtept><rtept lat="32.847595" lon="-17.158154"><ele>243.8</ele></rtept><rtept lat="32.84763" lon="-17.158253"><ele>246.2</ele></rtept><rtept lat="32.8476" lon="-17.158308"><ele>247.8</ele></rtept><rtept lat="32.847446" lon="-17.158306"><ele>251.8</ele></rtept><rtept lat="32.847313" lon="-17.158375"><ele>253.6</ele></rtept><rtept lat="32.847313" lon="-17.158298"><ele>254.8</ele></rtept><rtept lat="32.847282" lon="-17.158283"><ele>255.6</ele></rtept><rtept lat="32.847057" lon="-17.15825"><ele>262.6</ele></rtept><rtept lat="32.84676" lon="-17.158108"><ele>269.2</ele></rtept><rtept lat="32.846363" lon="-17.15758"><ele>284.4</ele></rtept><rtept lat="32.84633" lon="-17.157047"><ele>295.2</ele></rtept><rtept lat="32.84624" lon="-17.1568"><ele>301.6</ele></rtept><rtept lat="32.846233" lon="-17.156408"><ele>308.4</ele></rtept><rtept lat="32.846344" lon="-17.156193"><ele>314.2</ele></rtept><rtept lat="32.846615" lon="-17.155848"><ele>324.8</ele></rtept><rtept lat="32.84666" lon="-17.155598"><ele>331.6</ele></rtept><rtept lat="32.84669" lon="-17.155554"><ele>333.4</ele></rtept><rtept lat="32.84709" lon="-17.155363"><ele>345.0</ele></rtept><rtept lat="32.847126" lon="-17.155317"><ele>347.0</ele></rtept><rtept lat="32.84699" lon="-17.15523"><ele>353.2</ele></rtept><rtept lat="32.84706" lon="-17.155079"><ele>356.2</ele></rtept><rtept lat="32.846996" lon="-17.15447"><ele>362.4</ele></rtept><rtept lat="32.846924" lon="-17.15427"><ele>364.6</ele></rtept><rtept lat="32.846806" lon="-17.154072"><ele>368.4</ele></rtept><rtept lat="32.84676" lon="-17.154016"><ele>370.0</ele></rtept><rtept lat="32.846584" lon="-17.153948"><ele>375.2</ele></rtept><rtept lat="32.846508" lon="-17.153868"><ele>377.8</ele></rtept><rtept lat="32.846107" lon="-17.153254"><ele>390.0</ele></rtept><rtept lat="32.84572" lon="-17.152824"><ele>389.6</ele></rtept><rtept lat="32.84541" lon="-17.152214"><ele>390.6</ele></rtept><rtept lat="32.845352" lon="-17.152163"><ele>390.4</ele></rtept><rtept lat="32.845238" lon="-17.152134"><ele>389.8</ele></rtept><rtept lat="32.84508" lon="-17.152168"><ele>388.4</ele></rtept><rtept lat="32.844925" lon="-17.152252"><ele>386.6</ele></rtept><rtept lat="32.84485" lon="-17.152262"><ele>385.4</ele></rtept><rtept lat="32.844795" lon="-17.152218"><ele>384.2</ele></rtept><rtept lat="32.844776" lon="-17.152107"><ele>383.4</ele></rtept><rtept lat="32.844814" lon="-17.151684"><ele>387.2</ele></rtept><rtept lat="32.844776" lon="-17.150766"><ele>395.8</ele></rtept><rtept lat="32.844765" lon="-17.150663"><ele>397.2</ele></rtept><rtept lat="32.844704" lon="-17.150534"><ele>399.6</ele></rtept><rtept lat="32.84458" lon="-17.150412"><ele>402.6</ele></rtept><rtept lat="32.84446" lon="-17.150356"><ele>404.2</ele></rtept><rtept lat="32.843914" lon="-17.150412"><ele>409.2</ele></rtept><rtept lat="32.843597" lon="-17.15034"><ele>412.6</ele></rtept><rtept lat="32.843304" lon="-17.150145"><ele>415.2</ele></rtept><rtept lat="32.842854" lon="-17.149677"><ele>424.0</ele></rtept><rtept lat="32.84268" lon="-17.149643"><ele>424.4</ele></rtept><rtept lat="32.84248" lon="-17.149702"><ele>424.2</ele></rtept><rtept lat="32.842403" lon="-17.149683"><ele>423.8</ele></rtept><rtept lat="32.84237" lon="-17.149548"><ele>423.4</ele></rtept><rtept lat="32.84238" lon="-17.149479"><ele>423.6</ele></rtept><rtept lat="32.84267" lon="-17.149029"><ele>435.0</ele></rtept><rtept lat="32.8427" lon="-17.148943"><ele>437.4</ele></rtept><rtept lat="32.842674" lon="-17.14887"><ele>439.6</ele></rtept><rtept lat="32.842506" lon="-17.14875"><ele>442.8</ele></rtept><rtept lat="32.84234" lon="-17.148699"><ele>445.8</ele></rtept><rtept lat="32.84221" lon="-17.148758"><ele>448.8</ele></rtept><rtept lat="32.84172" lon="-17.148624"><ele>461.4</ele></rtept><rtept lat="32.84154" lon="-17.148647"><ele>468.0</ele></rtept><rtept lat="32.841484" lon="-17.148624"><ele>470.4</ele></rtept><rtept lat="32.84147" lon="-17.148663"><ele>473.4</ele></rtept><rtept lat="32.841217" lon="-17.148252"><ele>480.6</ele></rtept><rtept lat="32.840645" lon="-17.147938"><ele>486.4</ele></rtept><rtept lat="32.840206" lon="-17.14739"><ele>491.4</ele></rtept><rtept lat="32.84017" lon="-17.147074"><ele>493.4</ele></rtept><rtept lat="32.84012" lon="-17.146929"><ele>495.2</ele></rtept><rtept lat="32.83995" lon="-17.146767"><ele>498.4</ele></rtept><rtept lat="32.839733" lon="-17.146662"><ele>500.2</ele></rtept><rtept lat="32.83935" lon="-17.146313"><ele>501.0</ele></rtept><rtept lat="32.83907" lon="-17.146017"><ele>499.6</ele></rtept><rtept lat="32.83877" lon="-17.145552"><ele>501.6</ele></rtept><rtept lat="32.838596" lon="-17.145388"><ele>503.6</ele></rtept><rtept lat="32.838516" lon="-17.145184"><ele>503.4</ele></rtept><rtept lat="32.838356" lon="-17.14492"><ele>502.4</ele></rtept><rtept lat="32.838245" lon="-17.144583"><ele>502.8</ele></rtept><rtept lat="32.838135" lon="-17.144503"><ele>502.8</ele></rtept><rtept lat="32.837967" lon="-17.144445"><ele>503.0</ele></rtept><rtept lat="32.83774" lon="-17.144228"><ele>504.4</ele></rtept><rtept lat="32.8376" lon="-17.14419"><ele>507.6</ele></rtept><rtept lat="32.83745" lon="-17.144096"><ele>509.4</ele></rtept><rtept lat="32.837296" lon="-17.143948"><ele>510.2</ele></rtept><rtept lat="32.836826" lon="-17.143661"><ele>508.6</ele></rtept><rtept lat="32.836727" lon="-17.143501"><ele>506.8</ele></rtept><rtept lat="32.83669" lon="-17.143225"><ele>506.0</ele></rtept><rtept lat="32.83645" lon="-17.142845"><ele>505.0</ele></rtept><rtept lat="32.83629" lon="-17.142813"><ele>503.6</ele></rtept><rtept lat="32.83608" lon="-17.142683"><ele>501.2</ele></rtept><rtept lat="32.835987" lon="-17.142445"><ele>499.8</ele></rtept><rtept lat="32.835926" lon="-17.14237"><ele>500.0</ele></rtept><rtept lat="32.835693" lon="-17.142187"><ele>500.0</ele></rtept><rtept lat="32.835533" lon="-17.141998"><ele>500.0</ele></rtept><rtept lat="32.8353" lon="-17.141886"><ele>498.6</ele></rtept><rtept lat="32.83524" lon="-17.141783"><ele>499.0</ele></rtept><rtept lat="32.83502" lon="-17.141598"><ele>501.4</ele></rtept><rtept lat="32.834957" lon="-17.141563"><ele>501.6</ele></rtept><rtept lat="32.834812" lon="-17.141611"><ele>501.2</ele></rtept><rtept lat="32.834732" lon="-17.141594"><ele>500.8</ele></rtept><rtept lat="32.83469" lon="-17.141327"><ele>500.4</ele></rtept><rtept lat="32.834637" lon="-17.141243"><ele>500.4</ele></rtept><rtept lat="32.834515" lon="-17.141203"><ele>500.2</ele></rtept><rtept lat="32.834515" lon="-17.14116"><ele>499.6</ele></rtept><rtept lat="32.834785" lon="-17.140747"><ele>492.4</ele></rtept><rtept lat="32.83479" lon="-17.140667"><ele>490.0</ele></rtept><rtept lat="32.834587" lon="-17.14043"><ele>483.4</ele></rtept><rtept lat="32.834316" lon="-17.140526"><ele>475.2</ele></rtept><rtept lat="32.834057" lon="-17.140472"><ele>464.6</ele></rtept><rtept lat="32.83408" lon="-17.140427"><ele>460.0</ele></rtept><rtept lat="32.83405" lon="-17.140303"><ele>456.8</ele></rtept><rtept lat="32.834175" lon="-17.140144"><ele>458.4</ele></rtept><rtept lat="32.83423" lon="-17.139933"><ele>459.4</ele></rtept><rtept lat="32.83415" lon="-17.139963"><ele>461.2</ele></rtept><rtept lat="32.83403" lon="-17.140148"><ele>469.4</ele></rtept><rtept lat="32.833847" lon="-17.140238"><ele>480.8</ele></rtept><rtept lat="32.83372" lon="-17.14034"><ele>487.6</ele></rtept><rtept lat="32.833595" lon="-17.140326"><ele>492.4</ele></rtept><rtept lat="32.833527" lon="-17.140396"><ele>495.8</ele></rtept><rtept lat="32.83351" lon="-17.140375"><ele>497.6</ele></rtept><rtept lat="32.833588" lon="-17.14022"><ele>505.4</ele></rtept><rtept lat="32.833595" lon="-17.140135"><ele>507.4</ele></rtept><rtept lat="32.833576" lon="-17.140118"><ele>508.6</ele></rtept><rtept lat="32.833096" lon="-17.140364"><ele>531.8</ele></rtept><rtept lat="32.832947" lon="-17.14033"><ele>537.0</ele></rtept><rtept lat="32.832787" lon="-17.140486"><ele>547.0</ele></rtept><rtept lat="32.832542" lon="-17.140596"><ele>556.4</ele></rtept><rtept lat="32.832363" lon="-17.140766"><ele>564.6</ele></rtept><rtept lat="32.83214" lon="-17.140865"><ele>573.4</ele></rtept><rtept lat="32.831867" lon="-17.141151"><ele>585.8</ele></rtept><rtept lat="32.831696" lon="-17.14127"><ele>594.6</ele></rtept><rtept lat="32.831482" lon="-17.141308"><ele>604.2</ele></rtept><rtept lat="32.83129" lon="-17.141228"><ele>612.4</ele></rtept><rtept lat="32.830917" lon="-17.141203"><ele>623.4</ele></rtept><rtept lat="32.830456" lon="-17.141329"><ele>638.8</ele></rtept><rtept lat="32.829945" lon="-17.141384"><ele>658.0</ele></rtept><rtept lat="32.82984" lon="-17.141354"><ele>662.6</ele></rtept><rtept lat="32.82968" lon="-17.141422"><ele>668.2</ele></rtept><rtept lat="32.829525" lon="-17.14143"><ele>673.6</ele></rtept><rtept lat="32.82913" lon="-17.141525"><ele>688.6</ele></rtept><rtept lat="32.828907" lon="-17.14152"><ele>696.8</ele></rtept><rtept lat="32.82875" lon="-17.141573"><ele>703.0</ele></rtept><rtept lat="32.82817" lon="-17.141497"><ele>727.8</ele></rtept><rtept lat="32.82802" lon="-17.141407"><ele>733.0</ele></rtept><rtept lat="32.827682" lon="-17.14144"><ele>744.6</ele></rtept><rtept lat="32.82756" lon="-17.14138"><ele>748.6</ele></rtept><rtept lat="32.827454" lon="-17.141397"><ele>752.2</ele></rtept><rtept lat="32.827194" lon="-17.141344"><ele>761.2</ele></rtept><rtept lat="32.82699" lon="-17.141455"><ele>767.8</ele></rtept><rtept lat="32.826855" lon="-17.14145"><ele>772.0</ele></rtept><rtept lat="32.82638" lon="-17.141579"><ele>778.6</ele></rtept><rtept lat="32.826153" lon="-17.14173"><ele>782.0</ele></rtept><rtept lat="32.82597" lon="-17.141994"><ele>794.6</ele></rtept><rtept lat="32.825916" lon="-17.14214"><ele>799.4</ele></rtept><rtept lat="32.8258" lon="-17.142246"><ele>804.2</ele></rtept><rtept lat="32.825653" lon="-17.14229"><ele>809.8</ele></rtept><rtept lat="32.825317" lon="-17.142275"><ele>819.6</ele></rtept><rtept lat="32.82522" lon="-17.14233"><ele>822.2</ele></rtept><rtept lat="32.82513" lon="-17.142708"><ele>832.0</ele></rtept><rtept lat="32.824932" lon="-17.143167"><ele>838.2</ele></rtept><rtept lat="32.82468" lon="-17.143385"><ele>849.8</ele></rtept><rtept lat="32.824318" lon="-17.1435"><ele>859.0</ele></rtept><rtept lat="32.824017" lon="-17.143736"><ele>865.6</ele></rtept><rtept lat="32.8239" lon="-17.143778"><ele>870.6</ele></rtept><rtept lat="32.82379" lon="-17.143862"><ele>876.8</ele></rtept><rtept lat="32.823696" lon="-17.143867"><ele>883.2</ele></rtept><rtept lat="32.823597" lon="-17.143984"><ele>890.0</ele></rtept><rtept lat="32.82354" lon="-17.143976"><ele>892.0</ele></rtept><rtept lat="32.823322" lon="-17.144148"><ele>903.4</ele></rtept><rtept lat="32.82318" lon="-17.144306"><ele>911.0</ele></rtept><rtept lat="32.823044" lon="-17.144358"><ele>915.0</ele></rtept><rtept lat="32.822826" lon="-17.144527"><ele>920.4</ele></rtept><rtept lat="32.822636" lon="-17.144552"><ele>927.0</ele></rtept><rtept lat="32.82251" lon="-17.144657"><ele>934.6</ele></rtept><rtept lat="32.82239" lon="-17.144842"><ele>941.0</ele></rtept><rtept lat="32.82236" lon="-17.144938"><ele>942.0</ele></rtept><rtept lat="32.82216" lon="-17.145187"><ele>944.4</ele></rtept><rtept lat="32.822014" lon="-17.145203"><ele>948.2</ele></rtept><rtept lat="32.82177" lon="-17.145363"><ele>958.4</ele></rtept><rtept lat="32.821648" lon="-17.145348"><ele>962.0</ele></rtept><rtept lat="32.821526" lon="-17.14545"><ele>966.6</ele></rtept><rtept lat="32.821472" lon="-17.14544"><ele>967.6</ele></rtept><rtept lat="32.821156" lon="-17.145536"><ele>980.6</ele></rtept><rtept lat="32.821" lon="-17.14568"><ele>989.8</ele></rtept><rtept lat="32.82094" lon="-17.145655"><ele>992.2</ele></rtept><rtept lat="32.820835" lon="-17.14578"><ele>997.2</ele></rtept><rtept lat="32.820736" lon="-17.145811"><ele>1002.0</ele></rtept><rtept lat="32.82067" lon="-17.145895"><ele>1005.2</ele></rtept><rtept lat="32.820526" lon="-17.145943"><ele>1008.6</ele></rtept><rtept lat="32.820347" lon="-17.146187"><ele>1014.8</ele></rtept><rtept lat="32.82035" lon="-17.146307"><ele>1016.8</ele></rtept><rtept lat="32.82027" lon="-17.146505"><ele>1022.2</ele></rtept><rtept lat="32.82017" lon="-17.146587"><ele>1023.8</ele></rtept><rtept lat="32.820072" lon="-17.146744"><ele>1026.0</ele></rtept><rtept lat="32.819843" lon="-17.146997"><ele>1030.0</ele></rtept><rtept lat="32.81976" lon="-17.147158"><ele>1031.0</ele></rtept><rtept lat="32.81959" lon="-17.14722"><ele>1031.8</ele></rtept><rtept lat="32.8194" lon="-17.147367"><ele>1031.8</ele></rtept><rtept lat="32.819275" lon="-17.147388"><ele>1032.6</ele></rtept><rtept lat="32.818787" lon="-17.147173"><ele>1046.4</ele></rtept><rtept lat="32.81859" lon="-17.14697"><ele>1053.4</ele></rtept><rtept lat="32.81837" lon="-17.146646"><ele>1062.4</ele></rtept><rtept lat="32.81821" lon="-17.146523"><ele>1067.8</ele></rtept><rtept lat="32.817516" lon="-17.146378"><ele>1081.2</ele></rtept><rtept lat="32.817413" lon="-17.146282"><ele>1084.2</ele></rtept><rtept lat="32.817318" lon="-17.146326"><ele>1086.2</ele></rtept><rtept lat="32.817078" lon="-17.146303"><ele>1090.6</ele></rtept><rtept lat="32.816986" lon="-17.146341"><ele>1093.2</ele></rtept><rtept lat="32.816856" lon="-17.146324"><ele>1096.4</ele></rtept><rtept lat="32.816715" lon="-17.146225"><ele>1100.6</ele></rtept><rtept lat="32.816483" lon="-17.146124"><ele>1105.2</ele></rtept><rtept lat="32.816174" lon="-17.146166"><ele>1109.2</ele></rtept><rtept lat="32.816013" lon="-17.146149"><ele>1112.0</ele></rtept><rtept lat="32.815735" lon="-17.146029"><ele>1114.6</ele></rtept><rtept lat="32.815517" lon="-17.14586"><ele>1116.8</ele></rtept><rtept lat="32.81518" lon="-17.145798"><ele>1118.4</ele></rtept><rtept lat="32.81509" lon="-17.145657"><ele>1117.4</ele></rtept><rtept lat="32.814934" lon="-17.145163"><ele>1112.2</ele></rtept><rtept lat="32.81476" lon="-17.145073"><ele>1107.6</ele></rtept><rtept lat="32.814518" lon="-17.144754"><ele>1104.2</ele></rtept><rtept lat="32.81439" lon="-17.144691"><ele>1104.8</ele></rtept><rtept lat="32.81398" lon="-17.144606"><ele>1109.8</ele></rtept><rtept lat="32.813713" lon="-17.144495"><ele>1112.8</ele></rtept><rtept lat="32.812893" lon="-17.144028"><ele>1120.8</ele></rtept><rtept lat="32.812714" lon="-17.143957"><ele>1122.4</ele></rtept><rtept lat="32.812374" lon="-17.143692"><ele>1125.0</ele></rtept><rtept lat="32.812096" lon="-17.14325"><ele>1128.0</ele></rtept><rtept lat="32.81158" lon="-17.142097"><ele>1138.0</ele></rtept><rtept lat="32.811394" lon="-17.141848"><ele>1140.4</ele></rtept><rtept lat="32.81123" lon="-17.141752"><ele>1141.8</ele></rtept><rtept lat="32.81061" lon="-17.14159"><ele>1145.6</ele></rtept><rtept lat="32.810272" lon="-17.14143"><ele>1147.6</ele></rtept><rtept lat="32.810177" lon="-17.141352"><ele>1148.0</ele></rtept><rtept lat="32.809937" lon="-17.14102"><ele>1148.4</ele></rtept><rtept lat="32.80973" lon="-17.140942"><ele>1148.6</ele></rtept><rtept lat="32.809734" lon="-17.140903"><ele>1148.8</ele></rtept><rtept lat="32.809906" lon="-17.14083"><ele>1149.0</ele></rtept><rtept lat="32.810043" lon="-17.140635"><ele>1150.4</ele></rtept><rtept lat="32.810276" lon="-17.140484"><ele>1158.0</ele></rtept><rtept lat="32.81031" lon="-17.140406"><ele>1160.4</ele></rtept><rtept lat="32.81029" lon="-17.14033"><ele>1162.6</ele></rtept><rtept lat="32.810326" lon="-17.140121"><ele>1168.4</ele></rtept><rtept lat="32.810383" lon="-17.139965"><ele>1172.2</ele></rtept><rtept lat="32.810318" lon="-17.139288"><ele>1181.6</ele></rtept><rtept lat="32.810257" lon="-17.139105"><ele>1182.6</ele></rtept><rtept lat="32.810246" lon="-17.13884"><ele>1183.2</ele></rtept><rtept lat="32.81018" lon="-17.138638"><ele>1183.4</ele></rtept><rtept lat="32.810154" lon="-17.138348"><ele>1183.0</ele></rtept><rtept lat="32.8101" lon="-17.138163"><ele>1182.2</ele></rtept><rtept lat="32.81012" lon="-17.13792"><ele>1182.6</ele></rtept><rtept lat="32.81008" lon="-17.137709"><ele>1181.8</ele></rtept><rtept lat="32.81011" lon="-17.137552"><ele>1181.4</ele></rtept><rtept lat="32.81011" lon="-17.136686"><ele>1182.2</ele></rtept><rtept lat="32.80999" lon="-17.13639"><ele>1182.2</ele></rtept><rtept lat="32.80992" lon="-17.136055"><ele>1186.2</ele></rtept><rtept lat="32.809994" lon="-17.135828"><ele>1189.8</ele></rtept><rtept lat="32.810123" lon="-17.13565"><ele>1192.2</ele></rtept><rtept lat="32.810154" lon="-17.135498"><ele>1193.4</ele></rtept><rtept lat="32.81029" lon="-17.13518"><ele>1196.6</ele></rtept><rtept lat="32.810337" lon="-17.134699"><ele>1192.2</ele></rtept><rtept lat="32.81024" lon="-17.134455"><ele>1190.0</ele></rtept><rtept lat="32.81023" lon="-17.134077"><ele>1189.2</ele></rtept><rtept lat="32.810043" lon="-17.133686"><ele>1186.0</ele></rtept><rtept lat="32.81007" lon="-17.133387"><ele>1184.2</ele></rtept><rtept lat="32.809998" lon="-17.133137"><ele>1183.0</ele></rtept><rtept lat="32.81003" lon="-17.132908"><ele>1182.0</ele></rtept><rtept lat="32.80998" lon="-17.132545"><ele>1181.8</ele></rtept><rtept lat="32.81004" lon="-17.132359"><ele>1181.6</ele></rtept><rtept lat="32.81007" lon="-17.132084"><ele>1181.0</ele></rtept><rtept lat="32.810017" lon="-17.131952"><ele>1182.0</ele></rtept><rtept lat="32.80981" lon="-17.13173"><ele>1181.4</ele></rtept><rtept lat="32.80963" lon="-17.131403"><ele>1179.0</ele></rtept><rtept lat="32.809612" lon="-17.131304"><ele>1178.0</ele></rtept><rtept lat="32.809616" lon="-17.131153"><ele>1176.4</ele></rtept><rtept lat="32.809666" lon="-17.131027"><ele>1174.6</ele></rtept><rtept lat="32.80983" lon="-17.130743"><ele>1169.2</ele></rtept><rtept lat="32.809906" lon="-17.13067"><ele>1167.6</ele></rtept><rtept lat="32.80993" lon="-17.13059"><ele>1166.6</ele></rtept><rtept lat="32.809856" lon="-17.130507"><ele>1165.2</ele></rtept><rtept lat="32.80956" lon="-17.130356"><ele>1164.6</ele></rtept><rtept lat="32.809196" lon="-17.130016"><ele>1163.0</ele></rtept><rtept lat="32.80892" lon="-17.129692"><ele>1164.4</ele></rtept><rtept lat="32.808544" lon="-17.129602"><ele>1167.0</ele></rtept><rtept lat="32.80819" lon="-17.129654"><ele>1168.8</ele></rtept><rtept lat="32.80798" lon="-17.129633"><ele>1169.8</ele></rtept><rtept lat="32.807655" lon="-17.129782"><ele>1171.4</ele></rtept><rtept lat="32.80729" lon="-17.129887"><ele>1173.2</ele></rtept><rtept lat="32.807034" lon="-17.130072"><ele>1174.4</ele></rtept><rtept lat="32.806843" lon="-17.130293"><ele>1174.2</ele></rtept><rtept lat="32.806667" lon="-17.130644"><ele>1173.6</ele></rtept><rtept lat="32.806473" lon="-17.130873"><ele>1173.4</ele></rtept><rtept lat="32.806328" lon="-17.131163"><ele>1173.2</ele></rtept><rtept lat="32.80601" lon="-17.131348"><ele>1173.0</ele></rtept><rtept lat="32.805607" lon="-17.131481"><ele>1175.8</ele></rtept><rtept lat="32.805424" lon="-17.131666"><ele>1177.2</ele></rtept><rtept lat="32.80529" lon="-17.131746"><ele>1177.2</ele></rtept><rtept lat="32.80517" lon="-17.131733"><ele>1179.0</ele></rtept><rtept lat="32.804607" lon="-17.131792"><ele>1191.0</ele></rtept><rtept lat="32.804432" lon="-17.131737"><ele>1196.4</ele></rtept><rtept lat="32.804184" lon="-17.1314"><ele>1199.8</ele></rtept><rtept lat="32.802567" lon="-17.130253"><ele>1195.8</ele></rtept><rtept lat="32.802185" lon="-17.130217"><ele>1193.6</ele></rtept><rtept lat="32.801723" lon="-17.13005"><ele>1197.0</ele></rtept><rtept lat="32.801327" lon="-17.130037"><ele>1196.6</ele></rtept><rtept lat="32.800846" lon="-17.129757"><ele>1196.6</ele></rtept><rtept lat="32.800667" lon="-17.129763"><ele>1196.8</ele></rtept><rtept lat="32.800426" lon="-17.129843"><ele>1198.6</ele></rtept><rtept lat="32.800056" lon="-17.13001"><ele>1198.8</ele></rtept><rtept lat="32.799522" lon="-17.130344"><ele>1199.0</ele></rtept><rtept lat="32.799206" lon="-17.130356"><ele>1199.2</ele></rtept><rtept lat="32.798992" lon="-17.130293"><ele>1198.8</ele></rtept><rtept lat="32.798668" lon="-17.129969"><ele>1197.0</ele></rtept><rtept lat="32.79837" lon="-17.129866"><ele>1197.6</ele></rtept><rtept lat="32.797783" lon="-17.129475"><ele>1196.2</ele></rtept><rtept lat="32.797604" lon="-17.129438"><ele>1195.0</ele></rtept><rtept lat="32.79743" lon="-17.129583"><ele>1194.0</ele></rtept><rtept lat="32.797283" lon="-17.129759"><ele>1193.4</ele></rtept><rtept lat="32.797146" lon="-17.13003"><ele>1192.8</ele></rtept><rtept lat="32.796776" lon="-17.130383"><ele>1194.6</ele></rtept><rtept lat="32.796394" lon="-17.1306"><ele>1197.6</ele></rtept><rtept lat="32.79629" lon="-17.130615"><ele>1198.4</ele></rtept><rtept lat="32.79614" lon="-17.130552"><ele>1199.4</ele></rtept><rtept lat="32.795902" lon="-17.130304"><ele>1199.2</ele></rtept><rtept lat="32.79577" lon="-17.130226"><ele>1198.8</ele></rtept><rtept lat="32.79523" lon="-17.130222"><ele>1200.8</ele></rtept><rtept lat="32.795036" lon="-17.130135"><ele>1202.6</ele></rtept><rtept lat="32.79487" lon="-17.130154"><ele>1203.6</ele></rtept><rtept lat="32.79448" lon="-17.130049"><ele>1203.2</ele></rtept><rtept lat="32.794243" lon="-17.129908"><ele>1204.2</ele></rtept><rtept lat="32.79414" lon="-17.129793"><ele>1204.2</ele></rtept><rtept lat="32.79414" lon="-17.129639"><ele>1204.0</ele></rtept><rtept lat="32.79409" lon="-17.129562"><ele>1204.4</ele></rtept><rtept lat="32.793926" lon="-17.129435"><ele>1205.0</ele></rtept><rtept lat="32.79357" lon="-17.129297"><ele>1205.2</ele></rtept><rtept lat="32.793327" lon="-17.129118"><ele>1204.6</ele></rtept><rtept lat="32.793114" lon="-17.128769"><ele>1207.4</ele></rtept><rtept lat="32.79298" lon="-17.128412"><ele>1209.8</ele></rtept><rtept lat="32.792557" lon="-17.128279"><ele>1212.0</ele></rtept><rtept lat="32.792297" lon="-17.128078"><ele>1213.6</ele></rtept><rtept lat="32.79225" lon="-17.127953"><ele>1216.0</ele></rtept><rtept lat="32.792164" lon="-17.127851"><ele>1217.2</ele></rtept><rtept lat="32.791924" lon="-17.127728"><ele>1217.4</ele></rtept><rtept lat="32.791798" lon="-17.127708"><ele>1218.4</ele></rtept><rtept lat="32.791573" lon="-17.127745"><ele>1219.2</ele></rtept><rtept lat="32.7914" lon="-17.127724"><ele>1219.6</ele></rtept><rtept lat="32.791153" lon="-17.127785"><ele>1220.0</ele></rtept><rtept lat="32.791042" lon="-17.127747"><ele>1220.0</ele></rtept><rtept lat="32.790943" lon="-17.127584"><ele>1220.0</ele></rtept><rtept lat="32.79087" lon="-17.127207"><ele>1222.2</ele></rtept><rtept lat="32.790836" lon="-17.127146"><ele>1222.6</ele></rtept><rtept lat="32.790405" lon="-17.126669"><ele>1225.6</ele></rtept><rtept lat="32.790283" lon="-17.126469"><ele>1226.4</ele></rtept><rtept lat="32.790054" lon="-17.126318"><ele>1229.6</ele></rtept><rtept lat="32.78994" lon="-17.126143"><ele>1229.8</ele></rtept><rtept lat="32.78966" lon="-17.12587"><ele>1234.8</ele></rtept><rtept lat="32.78955" lon="-17.12569"><ele>1235.4</ele></rtept><rtept lat="32.7895" lon="-17.125427"><ele>1237.2</ele></rtept><rtept lat="32.789227" lon="-17.125483"><ele>1231.8</ele></rtept><rtept lat="32.789307" lon="-17.125322"><ele>1226.8</ele></rtept><rtept lat="32.78949" lon="-17.12515"><ele>1220.6</ele></rtept><rtept lat="32.789574" lon="-17.124903"><ele>1214.2</ele></rtept><rtept lat="32.789845" lon="-17.124533"><ele>1202.8</ele></rtept><rtept lat="32.7899" lon="-17.124514"><ele>1200.8</ele></rtept><rtept lat="32.789997" lon="-17.124617"><ele>1197.0</ele></rtept><rtept lat="32.790024" lon="-17.124598"><ele>1195.6</ele></rtept><rtept lat="32.790062" lon="-17.12448"><ele>1192.6</ele></rtept><rtept lat="32.790047" lon="-17.124308"><ele>1187.6</ele></rtept><rtept lat="32.7903" lon="-17.124214"><ele>1177.2</ele></rtept><rtept lat="32.79042" lon="-17.124092"><ele>1171.8</ele></rtept><rtept lat="32.790188" lon="-17.12392"><ele>1165.6</ele></rtept><rtept lat="32.79006" lon="-17.123737"><ele>1162.2</ele></rtept><rtept lat="32.789886" lon="-17.12372"><ele>1158.6</ele></rtept><rtept lat="32.78993" lon="-17.123613"><ele>1153.8</ele></rtept><rtept lat="32.789936" lon="-17.123442"><ele>1149.4</ele></rtept><rtept lat="32.78998" lon="-17.123348"><ele>1145.4</ele></rtept><rtept lat="32.789917" lon="-17.12315"><ele>1139.2</ele></rtept><rtept lat="32.78986" lon="-17.123062"><ele>1137.0</ele></rtept><rtept lat="32.78986" lon="-17.122997"><ele>1135.4</ele></rtept><rtept lat="32.790104" lon="-17.123068"><ele>1126.8</ele></rtept><rtept lat="32.7903" lon="-17.12306"><ele>1121.2</ele></rtept><rtept lat="32.790497" lon="-17.123207"><ele>1114.6</ele></rtept><rtept lat="32.790714" lon="-17.123173"><ele>1110.0</ele></rtept><rtept lat="32.79087" lon="-17.123068"><ele>1106.2</ele></rtept><rtept lat="32.790813" lon="-17.123028"><ele>1103.4</ele></rtept><rtept lat="32.790627" lon="-17.123001"><ele>1098.4</ele></rtept><rtept lat="32.79054" lon="-17.122923"><ele>1095.0</ele></rtept><rtept lat="32.790638" lon="-17.122894"><ele>1092.2</ele></rtept><rtept lat="32.790653" lon="-17.122875"><ele>1091.2</ele></rtept><rtept lat="32.79058" lon="-17.122803"><ele>1087.6</ele></rtept><rtept lat="32.790768" lon="-17.122692"><ele>1081.0</ele></rtept><rtept lat="32.79094" lon="-17.12249"><ele>1071.8</ele></rtept><rtept lat="32.79069" lon="-17.122404"><ele>1064.2</ele></rtept><rtept lat="32.79058" lon="-17.122263"><ele>1059.4</ele></rtept><rtept lat="32.79027" lon="-17.122112"><ele>1050.4</ele></rtept><rtept lat="32.790054" lon="-17.121906"><ele>1042.2</ele></rtept><rtept lat="32.79016" lon="-17.121887"><ele>1037.2</ele></rtept><rtept lat="32.789997" lon="-17.121532"><ele>1025.4</ele></rtept><rtept lat="32.790005" lon="-17.121187"><ele>1013.8</ele></rtept><rtept lat="32.790047" lon="-17.121038"><ele>1009.6</ele></rtept><rtept lat="32.790226" lon="-17.121067"><ele>1003.0</ele></rtept><rtept lat="32.79023" lon="-17.120888"><ele>998.4</ele></rtept><rtept lat="32.79026" lon="-17.120817"><ele>995.8</ele></rtept><rtept lat="32.79029" lon="-17.12082"><ele>994.6</ele></rtept><rtept lat="32.790325" lon="-17.120903"><ele>991.2</ele></rtept><rtept lat="32.790413" lon="-17.120834"><ele>985.2</ele></rtept><rtept lat="32.79053" lon="-17.12092"><ele>976.2</ele></rtept><rtept lat="32.79065" lon="-17.121078"><ele>971.8</ele></rtept><rtept lat="32.79074" lon="-17.121096"><ele>968.8</ele></rtept><rtept lat="32.790962" lon="-17.120892"><ele>963.8</ele></rtept><rtept lat="32.790974" lon="-17.120857"><ele>962.8</ele></rtept><rtept lat="32.790863" lon="-17.120823"><ele>957.2</ele></rtept><rtept lat="32.790894" lon="-17.120752"><ele>952.4</ele></rtept><rtept lat="32.79086" lon="-17.120712"><ele>949.4</ele></rtept><rtept lat="32.7909" lon="-17.120655"><ele>946.4</ele></rtept><rtept lat="32.79096" lon="-17.120613"><ele>944.2</ele></rtept><rtept lat="32.791187" lon="-17.120564"><ele>939.0</ele></rtept><rtept lat="32.791344" lon="-17.1206"><ele>936.2</ele></rtept><rtept lat="32.791462" lon="-17.120743"><ele>932.2</ele></rtept><rtept lat="32.79154" lon="-17.120754"><ele>927.2</ele></rtept><rtept lat="32.79158" lon="-17.120724"><ele>924.0</ele></rtept><rtept lat="32.791527" lon="-17.120604"><ele>918.8</ele></rtept><rtept lat="32.791733" lon="-17.120663"><ele>912.6</ele></rtept><rtept lat="32.79185" lon="-17.120647"><ele>910.2</ele></rtept><rtept lat="32.79186" lon="-17.120623"><ele>908.8</ele></rtept><rtept lat="32.791748" lon="-17.120558"><ele>904.0</ele></rtept><rtept lat="32.79188" lon="-17.120478"><ele>897.0</ele></rtept><rtept lat="32.791996" lon="-17.120625"><ele>892.8</ele></rtept><rtept lat="32.79217" lon="-17.120678"><ele>890.0</ele></rtept><rtept lat="32.79219" lon="-17.120647"><ele>889.0</ele></rtept><rtept lat="32.79211" lon="-17.12046"><ele>882.6</ele></rtept><rtept lat="32.792294" lon="-17.12036"><ele>873.6</ele></rtept><rtept lat="32.792076" lon="-17.120134"><ele>864.6</ele></rtept><rtept lat="32.792126" lon="-17.120102"><ele>861.6</ele></rtept><rtept lat="32.79229" lon="-17.120163"><ele>857.2</ele></rtept><rtept lat="32.79246" lon="-17.120106"><ele>852.4</ele></rtept><rtept lat="32.792576" lon="-17.119978"><ele>845.8</ele></rtept><rtept lat="32.792473" lon="-17.119873"><ele>840.8</ele></rtept><rtept lat="32.792484" lon="-17.11984"><ele>838.6</ele></rtept><rtept lat="32.792744" lon="-17.119879"><ele>833.6</ele></rtept><rtept lat="32.792606" lon="-17.119764"><ele>828.4</ele></rtept><rtept lat="32.79258" lon="-17.119682"><ele>825.8</ele></rtept><rtept lat="32.79293" lon="-17.119724"><ele>815.4</ele></rtept><rtept lat="32.793026" lon="-17.119781"><ele>811.8</ele></rtept><rtept lat="32.793232" lon="-17.119831"><ele>804.8</ele></rtept><rtept lat="32.793518" lon="-17.119991"><ele>794.8</ele></rtept><rtept lat="32.79376" lon="-17.120205"><ele>787.4</ele></rtept><rtept lat="32.793827" lon="-17.119972"><ele>779.4</ele></rtept><rtept lat="32.793716" lon="-17.11968"><ele>773.8</ele></rtept><rtept lat="32.793476" lon="-17.119474"><ele>769.0</ele></rtept><rtept lat="32.793392" lon="-17.119324"><ele>767.0</ele></rtept><rtept lat="32.793343" lon="-17.119173"><ele>764.2</ele></rtept><rtept lat="32.79334" lon="-17.118961"><ele>759.0</ele></rtept><rtept lat="32.793278" lon="-17.118847"><ele>755.4</ele></rtept><rtept lat="32.793266" lon="-17.118603"><ele>750.2</ele></rtept><rtept lat="32.793564" lon="-17.11866"><ele>738.0</ele></rtept><rtept lat="32.79392" lon="-17.118855"><ele>725.0</ele></rtept><rtept lat="32.794174" lon="-17.11904"><ele>715.6</ele></rtept><rtept lat="32.79441" lon="-17.11911"><ele>704.4</ele></rtept><rtept lat="32.79463" lon="-17.119078"><ele>696.8</ele></rtept><rtept lat="32.79471" lon="-17.11882"><ele>688.8</ele></rtept><rtept lat="32.79485" lon="-17.118893"><ele>683.6</ele></rtept><rtept lat="32.79507" lon="-17.118902"><ele>676.8</ele></rtept><rtept lat="32.79511" lon="-17.118963"><ele>672.8</ele></rtept><rtept lat="32.795166" lon="-17.118902"><ele>669.4</ele></rtept><rtept lat="32.7952" lon="-17.119038"><ele>664.6</ele></rtept><rtept lat="32.795403" lon="-17.119116"><ele>659.2</ele></rtept><rtept lat="32.79547" lon="-17.119192"><ele>656.8</ele></rtept><rtept lat="32.79547" lon="-17.119265"><ele>654.6</ele></rtept><rtept lat="32.795494" lon="-17.119232"><ele>651.6</ele></rtept><rtept lat="32.79548" lon="-17.119139"><ele>649.8</ele></rtept><rtept lat="32.795403" lon="-17.119055"><ele>646.8</ele></rtept><rtept lat="32.795433" lon="-17.118967"><ele>641.8</ele></rtept><rtept lat="32.795494" lon="-17.118935"><ele>639.0</ele></rtept><rtept lat="32.795555" lon="-17.119045"><ele>633.4</ele></rtept><rtept lat="32.79571" lon="-17.119076"><ele>627.8</ele></rtept><rtept lat="32.795685" lon="-17.118979"><ele>623.2</ele></rtept><rtept lat="32.795895" lon="-17.118807"><ele>614.0</ele></rtept><rtept lat="32.795914" lon="-17.118664"><ele>606.0</ele></rtept><rtept lat="32.796066" lon="-17.11841"><ele>597.8</ele></rtept><rtept lat="32.79608" lon="-17.118254"><ele>593.6</ele></rtept><rtept lat="32.79604" lon="-17.118086"><ele>588.8</ele></rtept><rtept lat="32.79597" lon="-17.117962"><ele>583.8</ele></rtept><rtept lat="32.796413" lon="-17.11801"><ele>567.0</ele></rtept><rtept lat="32.79643" lon="-17.118088"><ele>564.2</ele></rtept><rtept lat="32.796387" lon="-17.118298"><ele>555.6</ele></rtept><rtept lat="32.79659" lon="-17.118254"><ele>547.8</ele></rtept><rtept lat="32.79686" lon="-17.117964"><ele>540.8</ele></rtept><rtept lat="32.79703" lon="-17.117952"><ele>535.4</ele></rtept><rtept lat="32.797813" lon="-17.116926"><ele>520.0</ele></rtept><rtept lat="32.798237" lon="-17.116554"><ele>512.8</ele></rtept><rtept lat="32.79838" lon="-17.116365"><ele>509.8</ele></rtept><rtept lat="32.79857" lon="-17.116304"><ele>506.8</ele></rtept><rtept lat="32.798958" lon="-17.116287"><ele>501.4</ele></rtept><rtept lat="32.79903" lon="-17.11623"><ele>499.6</ele></rtept><rtept lat="32.7993" lon="-17.115856"><ele>492.8</ele></rtept><rtept lat="32.799767" lon="-17.115618"><ele>487.6</ele></rtept><rtept lat="32.80006" lon="-17.115528"><ele>484.2</ele></rtept><rtept lat="32.800434" lon="-17.115486"><ele>479.4</ele></rtept><rtept lat="32.80078" lon="-17.115751"><ele>475.8</ele></rtept><rtept lat="32.800877" lon="-17.115772"><ele>475.4</ele></rtept><rtept lat="32.80101" lon="-17.115437"><ele>474.4</ele></rtept><rtept lat="32.801067" lon="-17.115387"><ele>473.8</ele></rtept><rtept lat="32.80118" lon="-17.115377"><ele>473.2</ele></rtept><rtept lat="32.801643" lon="-17.115536"><ele>471.6</ele></rtept><rtept lat="32.802128" lon="-17.11583"><ele>469.0</ele></rtept><rtept lat="32.80218" lon="-17.115835"><ele>468.4</ele></rtept><rtept lat="32.80256" lon="-17.115583"><ele>467.2</ele></rtept><rtept lat="32.803017" lon="-17.115593"><ele>465.4</ele></rtept><rtept lat="32.80429" lon="-17.115204"><ele>460.6</ele></rtept><rtept lat="32.8049" lon="-17.115322"><ele>458.4</ele></rtept><rtept lat="32.805286" lon="-17.115515"><ele>456.8</ele></rtept><rtept lat="32.80586" lon="-17.115562"><ele>454.0</ele></rtept><rtept lat="32.8064" lon="-17.11543"><ele>452.4</ele></rtept><rtept lat="32.807293" lon="-17.11538"><ele>450.4</ele></rtept><rtept lat="32.80807" lon="-17.115206"><ele>447.2</ele></rtept><rtept lat="32.80865" lon="-17.115183"><ele>445.8</ele></rtept><rtept lat="32.80898" lon="-17.115225"><ele>443.8</ele></rtept><rtept lat="32.80916" lon="-17.115166"><ele>443.6</ele></rtept><rtept lat="32.8094" lon="-17.114994"><ele>443.0</ele></rtept><rtept lat="32.809425" lon="-17.11493"><ele>443.0</ele></rtept><rtept lat="32.8094" lon="-17.114832"><ele>442.8</ele></rtept><rtept lat="32.809406" lon="-17.114513"><ele>442.4</ele></rtept><rtept lat="32.809467" lon="-17.11429"><ele>442.6</ele></rtept><rtept lat="32.80937" lon="-17.114044"><ele>441.6</ele></rtept><rtept lat="32.80948" lon="-17.113995"><ele>441.6</ele></rtept><rtept lat="32.809513" lon="-17.113846"><ele>441.6</ele></rtept><rtept lat="32.809944" lon="-17.113401"><ele>439.6</ele></rtept><rtept lat="32.8103" lon="-17.11288"><ele>438.6</ele></rtept><rtept lat="32.81091" lon="-17.112358"><ele>437.0</ele></rtept><rtept lat="32.811096" lon="-17.112059"><ele>433.4</ele></rtept><rtept lat="32.81134" lon="-17.111528"><ele>427.0</ele></rtept><rtept lat="32.811565" lon="-17.111223"><ele>423.0</ele></rtept><rtept lat="32.811962" lon="-17.110992"><ele>417.4</ele></rtept><rtept lat="32.81218" lon="-17.110243"><ele>420.2</ele></rtept><rtept lat="32.812317" lon="-17.109962"><ele>415.6</ele></rtept><rtept lat="32.812496" lon="-17.109907"><ele>411.0</ele></rtept><rtept lat="32.81298" lon="-17.110031"><ele>398.0</ele></rtept><rtept lat="32.813095" lon="-17.109987"><ele>393.4</ele></rtept><rtept lat="32.813595" lon="-17.110035"><ele>387.8</ele></rtept><rtept lat="32.81385" lon="-17.110003"><ele>383.4</ele></rtept><rtept lat="32.81391" lon="-17.10998"><ele>382.4</ele></rtept><rtept lat="32.814106" lon="-17.109777"><ele>378.2</ele></rtept><rtept lat="32.814384" lon="-17.109877"><ele>370.4</ele></rtept><rtept lat="32.814835" lon="-17.10981"><ele>358.8</ele></rtept><rtept lat="32.814922" lon="-17.109743"><ele>354.2</ele></rtept><rtept lat="32.815464" lon="-17.109577"><ele>348.8</ele></rtept><rtept lat="32.816013" lon="-17.10948"><ele>340.2</ele></rtept><rtept lat="32.816353" lon="-17.109264"><ele>330.6</ele></rtept><rtept lat="32.81674" lon="-17.109194"><ele>322.2</ele></rtept><rtept lat="32.81711" lon="-17.109295"><ele>316.6</ele></rtept><rtept lat="32.81765" lon="-17.10914"><ele>310.4</ele></rtept><rtept lat="32.817932" lon="-17.108982"><ele>309.2</ele></rtept><rtept lat="32.81801" lon="-17.10891"><ele>308.8</ele></rtept><rtept lat="32.81801" lon="-17.108885"><ele>308.74985</ele></rtept><rtept lat="32.818012" lon="-17.108902"><ele>287.54</ele></rtept><rtept lat="32.81819" lon="-17.10883"><ele>285.99</ele></rtept><rtept lat="32.81855" lon="-17.109114"><ele>279.27</ele></rtept><rtept lat="32.818764" lon="-17.109076"><ele>275.59</ele></rtept><rtept lat="32.818916" lon="-17.109022"><ele>272.77</ele></rtept><rtept lat="32.81906" lon="-17.10901"><ele>270.45</ele></rtept><rtept lat="32.819195" lon="-17.108948"><ele>268.35</ele></rtept><rtept lat="32.819347" lon="-17.108927"><ele>265.89</ele></rtept><rtept lat="32.81946" lon="-17.108791"><ele>263.21</ele></rtept><rtept lat="32.819637" lon="-17.10893"><ele>261.32</ele></rtept><rtept lat="32.81968" lon="-17.108952"><ele>261.3</ele></rtept><rtept lat="32.819756" lon="-17.108952"><ele>260.98</ele></rtept><rtept lat="32.81983" lon="-17.10897"><ele>260.36</ele></rtept><rtept lat="32.820015" lon="-17.109232"><ele>258.1</ele></rtept><rtept lat="32.820274" lon="-17.109161"><ele>248.99</ele></rtept><rtept lat="32.82038" lon="-17.109184"><ele>244.23</ele></rtept><rtept lat="32.82053" lon="-17.10913"><ele>238.32</ele></rtept><rtept lat="32.820747" lon="-17.108822"><ele>223.74</ele></rtept><rtept lat="32.8209" lon="-17.108927"><ele>215.72</ele></rtept><rtept lat="32.821255" lon="-17.10891"><ele>201.11</ele></rtept><rtept lat="32.821346" lon="-17.108711"><ele>193.82</ele></rtept><rtept lat="32.821644" lon="-17.108335"><ele>179.42</ele></rtept><rtept lat="32.8218" lon="-17.108524"><ele>173.13</ele></rtept><rtept lat="32.822388" lon="-17.108149"><ele>153.72</ele></rtept><rtept lat="32.822754" lon="-17.108149"><ele>140.1</ele></rtept><rtept lat="32.82306" lon="-17.10788"><ele>124.05</ele></rtept><rtept lat="32.82322" lon="-17.107864"><ele>116.08</ele></rtept><rtept lat="32.823418" lon="-17.107664"><ele>103.47</ele></rtept><rtept lat="32.823437" lon="-17.107552"><ele>102.15</ele></rtept><rtept lat="32.82342" lon="-17.107426"><ele>105.93</ele></rtept><rtept lat="32.82346" lon="-17.107199"><ele>109.04</ele></rtept><rtept lat="32.823326" lon="-17.10698"><ele>107.47</ele></rtept><rtept lat="32.82317" lon="-17.106903"><ele>102.46</ele></rtept><rtept lat="32.82361" lon="-17.106443"><ele>92.61</ele></rtept><rtept lat="32.82367" lon="-17.106407"><ele>91.52</ele></rtept><rtept lat="32.82376" lon="-17.106375"><ele>90.0</ele></rtept><rtept lat="32.82389" lon="-17.106379"><ele>88.95</ele></rtept><rtept lat="32.82387" lon="-17.106276"><ele>86.31</ele></rtept><rtept lat="32.823883" lon="-17.106071"><ele>81.12</ele></rtept><rtept lat="32.824024" lon="-17.10572"><ele>71.76</ele></rtept><rtept lat="32.82434" lon="-17.105877"><ele>76.62</ele></rtept><rtept lat="32.824505" lon="-17.105991"><ele>79.97</ele></rtept><rtept lat="32.824524" lon="-17.106056"><ele>80.37</ele></rtept></rte></gpx>